[{"OBJECT_NAME":"LYRA-1","OBJECT_ID":"2025-009BH","EPOCH":"2026-03-09T17:26:12.542784","MEAN_MOTION":15.16922568,"ECCENTRICITY":0.00098251,"INCLINATION":97.4045,"RA_OF_ASC_NODE":145.5025,"ARG_OF_PERICENTER":171.7868,"MEAN_ANOMALY":188.3529,"EPHEMERIS_TYPE":0,"CLASSIFICATION_TYPE":"U","NORAD_CAT_ID":62664,"ELEMENT_SET_NO":999,"REV_AT_EPOCH":6333,"BSTAR":0.00059700149,"MEAN_MOTION_DOT":0.00011728,"MEAN_MOTION_DDOT":0},{"OBJECT_NAME":"FOSSASAT-2E22","OBJECT_ID":"2025-276DU","EPOCH":"2026-03-09T17:31:32.157120","MEAN_MOTION":15.17702542,"ECCENTRICITY":0.00067992,"INCLINATION":97.4248,"RA_OF_ASC_NODE":143.8392,"ARG_OF_PERICENTER":122.1987,"MEAN_ANOMALY":237.9907,"EPHEMERIS_TYPE":0,"CLASSIFICATION_TYPE":"U","NORAD_CAT_ID":66779,"ELEMENT_SET_NO":999,"REV_AT_EPOCH":1531,"BSTAR":0.00072006119,"MEAN_MOTION_DOT":0.00014475,"MEAN_MOTION_DDOT":0}]
